*******************************************************************************
Ephemeris / PORT_LOGIN Sun Nov 27 10:15:26 2011 Pasadena, USA    / Horizons    
*******************************************************************************
Target body name: Hydra (903)                     {source: PLU021}
Center body name: Solar System Barycenter (0)     {source: DE405}
Center-site name: BODY CENTER
*******************************************************************************
Start time      : A.D. 2001-Jan-01 10:00:00.0000 CT 
Stop  time      : A.D. 2001-Jan-02 00:00:00.0000 CT 
Step-size       : 60 minutes
*******************************************************************************
Center geodetic : 0.00000000,0.00000000,0.0000000 {E-lon(deg),Lat(deg),Alt(km)}
Center cylindric: 0.00000000,0.00000000,0.0000000 {E-lon(deg),Dxy(km),Dz(km)}
Center radii    : (undefined)                                                  
Output units    : AU-D                                                         
Output format   : 03
Reference frame : ICRF/J2000.0                                                 
Output type     : GEOMETRIC cartesian states
Coordinate systm: Earth Mean Equator and Equinox of Reference Epoch            
*******************************************************************************
JDCT 
   X     Y     Z
   VX    VY    VZ
   LT    RG    RR
*******************************************************************************
$$SOE
2451910.916666667 = A.D. 2001-Jan-01 10:00:00.0000 (CT)
  -8.765520007369782E+00 -2.837646981058731E+01 -6.213999575039980E+00
   3.120737550869148E-03 -9.754720458404472E-04 -1.234177937861445E-03
   1.752441279136278E-01  3.034258015774813E+01  2.634827611824847E-04
2451910.958333333 = A.D. 2001-Jan-01 11:00:00.0000 (CT)
  -8.765389974861684E+00 -2.837651045489664E+01 -6.214051009082697E+00
   3.120822481080333E-03 -9.754551711853504E-04 -1.234656334603318E-03
   1.752441913287425E-01  3.034259113773485E+01  2.635570963617003E-04
2451911.000000000 = A.D. 2001-Jan-01 12:00:00.0000 (CT)
  -8.765259938859231E+00 -2.837655109854882E+01 -6.214102463086182E+00
   3.120905284447005E-03 -9.754404977125495E-04 -1.235136050049723E-03
   1.752442547621010E-01  3.034260212088041E+01  2.636343779346589E-04
2451911.041666667 = A.D. 2001-Jan-01 13:00:00.0000 (CT)
  -8.765129899450470E+00 -2.837659174163493E+01 -6.214153937104748E+00
   3.120985988449628E-03 -9.754279952059672E-04 -1.235617052654138E-03
   1.752443182144073E-01  3.034261310730668E+01  2.637145632250426E-04
2451911.083333333 = A.D. 2001-Jan-01 14:00:00.0000 (CT)
  -8.764999856722303E+00 -2.837663238424481E+01 -6.214205431191256E+00
   3.121064620468224E-03 -9.754176325831583E-04 -1.236099304435769E-03
   1.752443816863548E-01  3.034262409713372E+01  2.637976074577618E-04
2451911.125000000 = A.D. 2001-Jan-01 15:00:00.0000 (CT)
  -8.764869810760500E+00 -2.837667302646693E+01 -6.214256945396850E+00
   3.121141207455104E-03 -9.754093781634919E-04 -1.236582760742490E-03
   1.752444451786260E-01  3.034263509047969E+01  2.638834640556751E-04
2451911.166666667 = A.D. 2001-Jan-01 16:00:00.0000 (CT)
  -8.764739761649723E+00 -2.837671366838849E+01 -6.214308479770668E+00
   3.121215775583253E-03 -9.754031999703776E-04 -1.237067370090496E-03
   1.752445086918919E-01  3.034264608746078E+01  2.639720849908782E-04
2451911.208333333 = A.D. 2001-Jan-01 17:00:00.0000 (CT)
  -8.764609709473559E+00 -2.837675431009532E+01 -6.214360034359564E+00
   3.121288349877512E-03 -9.753990660631743E-04 -1.237553074095582E-03
   1.752445722268118E-01  3.034265708819116E+01  2.640634211874831E-04
2451911.250000000 = A.D. 2001-Jan-01 18:00:00.0000 (CT)
  -8.764479654314597E+00 -2.837679495167195E+01 -6.214411609207811E+00
   3.121358953838518E-03 -9.753969448918331E-04 -1.238039807511498E-03
   1.752446357840332E-01  3.034266809278290E+01  2.641574229696606E-04
2451911.291666667 = A.D. 2001-Jan-01 19:00:00.0000 (CT)
  -8.764349596254471E+00 -2.837683559320159E+01 -6.214463204356825E+00
   3.121427609072810E-03 -9.753968056641639E-04 -1.238527498390916E-03
   1.752446993641915E-01  3.034267910134607E+01  2.642540405448210E-04
2451911.333333333 = A.D. 2001-Jan-01 20:00:00.0000 (CT)
  -8.764219535373970E+00 -2.837687623476620E+01 -6.214514819844890E+00
   3.121494334946615E-03 -9.753986187117761E-04 -1.239016068384294E-03
   1.752447629679103E-01  3.034269011398860E+01  2.643532245069430E-04
2451911.375000000 = A.D. 2001-Jan-01 21:00:00.0000 (CT)
  -8.764089471753122E+00 -2.837691687644654E+01 -6.214566455706898E+00
   3.121559148285629E-03 -9.754023558361427E-04 -1.239505433191099E-03
   1.752448265958013E-01  3.034270113081641E+01  2.644549263392349E-04
2451911.416666667 = A.D. 2001-Jan-01 22:00:00.0000 (CT)
  -8.763959405471311E+00 -2.837695751832221E+01 -6.214618111974118E+00
   3.121622063148788E-03 -9.754079906107683E-04 -1.239995503176374E-03
   1.752448902484647E-01  3.034271215193343E+01  2.645590988882339E-04
2451911.458333333 = A.D. 2001-Jan-01 23:00:00.0000 (CT)
  -8.763829336607403E+00 -2.837699816047177E+01 -6.214669788673984E+00
   3.121683090710610E-03 -9.754154986089798E-04 -1.240486184163446E-03
   1.752449539264896E-01  3.034272317744167E+01  2.646656967730641E-04
2451911.500000000 = A.D. 2001-Jan-02 00:00:00.0000 (CT)
  -8.763699265239849E+00 -2.837703880297280E+01 -6.214721485829928E+00
   3.121742239294366E-03 -9.754248575192854E-04 -1.240977378410374E-03
   1.752450176304544E-01  3.034273420744125E+01  2.647746766836303E-04
$$EOE
*******************************************************************************
Coordinate system description:

  Earth Mean Equator and Equinox of Reference Epoch

    Reference epoch: J2000.0
    xy-plane: plane of the Earth's mean equator at the reference epoch
    x-axis  : out along ascending node of instantaneous plane of the Earth's
              orbit and the Earth's mean equator at the reference epoch
    z-axis  : along the Earth mean north pole at the reference epoch

Symbol meaning [1 AU=149597870.691 km, 1 day=86400.0 s]:

    JDCT     Epoch Julian Date, Coordinate Time
      X      x-component of position vector (AU)                               
      Y      y-component of position vector (AU)                               
      Z      z-component of position vector (AU)                               
      VX     x-component of velocity vector (AU/day)                           
      VY     y-component of velocity vector (AU/day)                           
      VZ     z-component of velocity vector (AU/day)                           
      LT     One-way down-leg Newtonian light-time (day)                       
      RG     Range; distance from coordinate center (AU)                       
      RR     Range-rate; radial velocity wrt coord. center (AU/day)            

Geometric states/elements have no aberration corrections applied.

 Computations by ...
     Solar System Dynamics Group, Horizons On-Line Ephemeris System
     4800 Oak Grove Drive, Jet Propulsion Laboratory
     Pasadena, CA  91109   USA
     Information: http://ssd.jpl.nasa.gov/
     Connect    : telnet://ssd.jpl.nasa.gov:6775  (via browser)
                  telnet ssd.jpl.nasa.gov 6775    (via command-line)
     Author     : Jon.Giorgini@jpl.nasa.gov
*******************************************************************************
